OBJECT_NAME,OBJECT_ID,EPOCH,MEAN_MOTION,ECCENTRICITY,INCLINATION,RA_OF_ASC_NODE,ARG_OF_PERICENTER,MEAN_ANOMALY,EPHEMERIS_TYPE,CLASSIFICATION_TYPE,NORAD_CAT_ID,ELEMENT_SET_NO,REV_AT_EPOCH,BSTAR,MEAN_MOTION_DOT,MEAN_MOTION_DDOT
DONGPO 01,2022-098K,2026-05-19T13:10:10.106976,15.67539178,.0000839,97.5557,268.9788,158.6758,201.4537,0,U,53453,999,21026,.4491E-3,.48814E-3,0
STARLINK-4400,2022-099D,2026-05-19T08:03:05.215392,15.05651334,.0000751,97.4689,259.5009,156.5256,203.6005,0,U,53468,999,20660,.65256E-4,.883E-5,0
STARLINK-4621,2022-105AE,2026-05-19T09:42:47.378592,15.05638338,.0002361,97.4743,19.5775,79.7547,280.3946,0,U,53676,999,20387,.18458E-3,.2605E-4,0
SHERPA-LTC2,2022-107BG,2026-05-19T13:16:35.125248,14.69247607,.0397325,53.2341,341.5167,145.9732,216.7418,0,U,53754,999,19833,.26467E-3,.514E-4,0
CENTISPACE-1 S3,2022-108A,2026-05-19T11:30:16.277184,14.61222797,.0008185,53.5314,173.9654,268.0376,91.9661,0,U,53757,999,19733,.49004E-4,.54E-6,0
CENTISPACE-1 S4,2022-108B,2026-05-19T11:26:48.174144,14.61896356,.0007815,53.5289,171.6285,253.5527,106.4589,0,U,53758,999,19736,.58468E-4,.105E-5,0
BLUEWALKER-3,2022-111AL,2026-05-19T11:00:25.627680,15.37881297,.0007441,53.2272,168.8035,85.2400,274.9455,0,U,53807,999,20578,.75752E-4,.247E-4,0
YUNHAI-1 03,2022-115A,2026-05-19T11:37:03.794016,14.32696871,.0005761,98.5534,137.9968,123.2017,236.9720,0,U,53877,999,19140,.94675E-4,.214E-5,0
CENTISPACE-1 S5,2022-126A,2026-05-19T12:34:44.375808,14.62956051,.0012923,54.9996,327.6559,16.8545,343.2876,0,U,54020,999,19284,.11828E-3,.421E-5,0
CENTISPACE-1 S6,2022-126B,2026-05-19T12:04:38.432640,14.62244712,.0014772,55.0000,329.4729,15.7736,344.3715,0,U,54021,999,19280,.97708E-4,.308E-5,0
OTB-3-GAZELLE,2022-127A,2026-05-19T09:58:30.550368,14.42662862,.0011817,98.3941,131.5598,276.3182,83.6662,0,U,54023,999,19021,.32997E-4,.66E-6,0
ASO-S,2022-129A,2026-05-19T12:27:17.622144,14.52045803,.0014364,98.2752,145.0101,175.5123,184.6203,0,U,54029,999,19126,.36135E-4,.102E-5,0
HJ-2E,2022-132A,2026-05-19T11:45:44.354880,15.21837776,.0022636,97.3802,144.3948,108.7510,251.6185,0,U,54035,999,20005,.21505E-3,.485E-4,0
COSMOS 2561,2022-137A,2026-05-19T12:31:44.010624,15.50911199,.0011674,96.9205,199.6060,126.2422,233.9912,0,U,54109,999,20190,.15024E-3,.8628E-4,0
GONETS-M 23,2022-139A,2026-05-19T12:36:31.740768,12.42889525,.0020609,82.5091,6.1085,285.5898,74.2907,0,U,54150,999,16208,.17994E-3,.35E-6,0
GONETS-M 24,2022-139B,2026-05-19T13:53:44.265120,12.42890087,.0015932,82.5008,5.1547,296.9086,63.0366,0,U,54151,999,16209,.85841E-4,.22E-6,0
GONETS-M 25,2022-139C,2026-05-19T13:34:05.205792,12.42889229,.0019843,82.5073,5.8340,294.8448,65.0568,0,U,54152,999,16209,.81942E-4,.21E-6,0
SKIF-D,2022-139D,2026-05-19T11:27:00.358272,5.00437151,.0007422,89.9550,96.6762,212.2337,147.7544,0,U,54153,999,6267,0,.23E-6,0
MATS,2022-147A,2026-05-19T07:57:22.408704,15.05159825,.0010687,97.6833,141.0587,302.9453,57.0745,0,U,54227,999,19342,.13527E-3,.1867E-4,0
JILIN-1 GAOFEN 03D54,2022-155D,2026-05-19T09:34:44.387040,15.84464596,.0001336,97.6112,289.0177,169.0862,191.0437,0,U,54254,999,19572,.5186E-3,.119174E-2,0
EOS-6 (OCEANSAT-3),2022-158A,2026-05-19T12:50:20.813568,14.47022049,.0002146,98.3518,238.1119,79.1861,280.9573,0,U,54361,999,18369,.58461E-4,.169E-5,0
DONGPO 09,2022-167D,2026-05-19T11:38:14.907264,15.35638091,.0001999,97.6882,309.2299,190.5148,169.6053,0,U,54685,999,19104,.21116E-3,.723E-4,0
DONGPO 08,2022-167E,2026-05-19T11:32:39.773760,15.33025871,.0006803,97.6844,306.5384,266.7713,93.2750,0,U,54686,999,19092,.19721E-3,.621E-4,0
2022-167F,2022-167F,2026-05-19T12:29:57.576192,15.82338826,.0003118,97.6161,324.1293,166.4428,193.6924,0,U,54687,999,19228,.45396E-3,.94155E-3,0
DONGPO 10,2022-167H,2026-05-19T12:03:44.091360,15.33811421,.0004681,97.6927,308.4447,200.0443,160.0615,0,U,54689,999,19096,.19854E-3,.6409E-4,0
JILIN-1 GAOFEN 03D48,2022-167P,2026-05-19T12:20:38.781600,15.34548391,.0005957,97.6861,307.8260,207.6651,152.4275,0,U,54695,999,19099,.20295E-3,.671E-4,0
STAR VIBE,2023-001A,2026-05-19T11:47:02.443200,15.41757931,.0005311,97.3182,203.8548,200.2063,159.8975,0,U,55009,999,18780,.21406E-3,.8969E-4,0
BRO-8,2023-001C,2026-05-19T11:28:52.055328,15.47184068,.0005636,97.3226,204.2867,207.1472,152.9485,0,U,55011,999,18776,.36362E-3,.1841E-3,0
CONNECTA T1.2,2023-001D,2026-05-19T11:59:07.360800,15.48479715,.0006578,97.3284,209.7256,183.6430,176.4774,0,U,55012,999,18810,.54262E-3,.28828E-3,0
BIRKELAND,2023-001G,2026-05-19T10:08:41.669664,15.39522690,.0006465,97.3353,207.3290,193.5397,166.5676,0,U,55015,999,18792,.15721E-3,.6094E-4,0
