DONGPO 01               
1 53453U 22098K   26139.54872809  .00048814  00000+0  44910-3 0  9990
2 53453  97.5557 268.9788 0000839 158.6758 201.4537 15.67539178210263
STARLINK-4400           
1 53468U 22099D   26139.33547703  .00000883  00000+0  65256-4 0  9997
2 53468  97.4689 259.5009 0000751 156.5256 203.6005 15.05651334206607
STARLINK-4621           
1 53676U 22105AE  26139.40471503  .00002605  00000+0  18458-3 0  9993
2 53676  97.4743  19.5775 0002361  79.7547 280.3946 15.05638338203872
SHERPA-LTC2             
1 53754U 22107BG  26139.55318432  .00005140  00000+0  26467-3 0  9995
2 53754  53.2341 341.5167 0397325 145.9732 216.7418 14.69247607198330
CENTISPACE-1 S3         
1 53757U 22108A   26139.47935506  .00000054  00000+0  49004-4 0  9999
2 53757  53.5314 173.9654 0008185 268.0376  91.9661 14.61222797197335
CENTISPACE-1 S4         
1 53758U 22108B   26139.47694646  .00000105  00000+0  58468-4 0  9998
2 53758  53.5289 171.6285 0007815 253.5527 106.4589 14.61896356197360
BLUEWALKER-3            
1 53807U 22111AL  26139.45862995  .00002470  00000+0  75752-4 0  9991
2 53807  53.2272 168.8035 0007441  85.2400 274.9455 15.37881297205781
YUNHAI-1 03             
1 53877U 22115A   26139.48407169  .00000214  00000+0  94675-4 0  9992
2 53877  98.5534 137.9968 0005761 123.2017 236.9720 14.32696871191405
CENTISPACE-1 S5         
1 54020U 22126A   26139.52412472  .00000421  00000+0  11828-3 0  9991
2 54020  54.9996 327.6559 0012923  16.8545 343.2876 14.62956051192844
CENTISPACE-1 S6         
1 54021U 22126B   26139.50322260  .00000308  00000+0  97708-4 0  9991
2 54021  55.0000 329.4729 0014772  15.7736 344.3715 14.62244712192800
OTB-3-GAZELLE           
1 54023U 22127A   26139.41563137  .00000066  00000+0  32997-4 0  9994
2 54023  98.3941 131.5598 0011817 276.3182  83.6662 14.42662862190214
ASO-S                   
1 54029U 22129A   26139.51895396  .00000102  00000+0  36135-4 0  9997
2 54029  98.2752 145.0101 0014364 175.5123 184.6203 14.52045803191264
HJ-2E                   
1 54035U 22132A   26139.49009670  .00004850  00000+0  21505-3 0  9995
2 54035  97.3802 144.3948 0022636 108.7510 251.6185 15.21837776200054
COSMOS 2561             
1 54109U 22137A   26139.52203716  .00008628  00000+0  15024-3 0  9999
2 54109  96.9205 199.6060 0011674 126.2422 233.9912 15.50911199201903
GONETS-M 23             
1 54150U 22139A   26139.52536737  .00000035  00000+0  17994-3 0  9991
2 54150  82.5091   6.1085 0020609 285.5898  74.2907 12.42889525162086
GONETS-M 24             
1 54151U 22139B   26139.57898455  .00000022  00000+0  85841-4 0  9998
2 54151  82.5008   5.1547 0015932 296.9086  63.0366 12.42890087162096
GONETS-M 25             
1 54152U 22139C   26139.56533803  .00000021  00000+0  81942-4 0  9998
2 54152  82.5073   5.8340 0019843 294.8448  65.0568 12.42889229162093
SKIF-D                  
1 54153U 22139D   26139.47708748  .00000023  00000+0  00000+0 0  9994
2 54153  89.9550  96.6762 0007422 212.2337 147.7544  5.00437151 62676
MATS                    
1 54227U 22147A   26139.33150936  .00001867  00000+0  13527-3 0  9999
2 54227  97.6833 141.0587 0010687 302.9453  57.0745 15.05159825193420
JILIN-1 GAOFEN 03D54    
1 54254U 22155D   26139.39912485  .00119174  00000+0  51860-3 0  9992
2 54254  97.6112 289.0177 0001336 169.0862 191.0437 15.84464596195728
EOS-6 (OCEANSAT-3)      
1 54361U 22158A   26139.53496312  .00000169  00000+0  58461-4 0  9994
2 54361  98.3518 238.1119 0002146  79.1861 280.9573 14.47022049183699
DONGPO 09               
1 54685U 22167D   26139.48489476  .00007230  00000+0  21116-3 0  9992
2 54685  97.6882 309.2299 0001999 190.5148 169.6053 15.35638091191046
DONGPO 08               
1 54686U 22167E   26139.48101590  .00006210  00000+0  19721-3 0  9997
2 54686  97.6844 306.5384 0006803 266.7713  93.2750 15.33025871190929
2022-167F               
1 54687U 22167F   26139.52080528  .00094155  00000+0  45396-3 0  9992
2 54687  97.6161 324.1293 0003118 166.4428 193.6924 15.82338826192282
DONGPO 10               
1 54689U 22167H   26139.50259365  .00006409  00000+0  19854-3 0  9994
2 54689  97.6927 308.4447 0004681 200.0443 160.0615 15.33811421190969
JILIN-1 GAOFEN 03D48    
1 54695U 22167P   26139.51433775  .00006710  00000+0  20295-3 0  9997
2 54695  97.6861 307.8260 0005957 207.6651 152.4275 15.34548391190994
STAR VIBE               
1 55009U 23001A   26139.49100050  .00008969  00000+0  21406-3 0  9992
2 55009  97.3182 203.8548 0005311 200.2063 159.8975 15.41757931187805
BRO-8                   
1 55011U 23001C   26139.47838027  .00018410  00000+0  36362-3 0  9994
2 55011  97.3226 204.2867 0005636 207.1472 152.9485 15.47184068187762
CONNECTA T1.2           
1 55012U 23001D   26139.49939075  .00028828  00000+0  54262-3 0  9995
2 55012  97.3284 209.7256 0006578 183.6430 176.4774 15.48479715188105
BIRKELAND               
1 55015U 23001G   26139.42270451  .00006094  00000+0  15721-3 0  9995
2 55015  97.3353 207.3290 0006465 193.5397 166.5676 15.39522690187925
